[{"OBJECT_NAME":"FORTE","OBJECT_ID":"1997-047A","EPOCH":"2026-03-09T21:41:12.798240","MEAN_MOTION":14.27898785,"ECCENTRICITY":0.00196357,"INCLINATION":69.9517,"RA_OF_ASC_NODE":238.2652,"ARG_OF_PERICENTER":49.0734,"MEAN_ANOMALY":311.2084,"EPHEMERIS_TYPE":0,"CLASSIFICATION_TYPE":"U","NORAD_CAT_ID":24920,"ELEMENT_SET_NO":999,"REV_AT_EPOCH":48451,"BSTAR":0.0001374801,"MEAN_MOTION_DOT":2.83e-6,"MEAN_MOTION_DDOT":0},{"OBJECT_NAME":"FENGYUN 1C DEB","OBJECT_ID":"1999-025ZM","EPOCH":"2026-03-08T03:43:27.660864","MEAN_MOTION":14.27949622,"ECCENTRICITY":0.00725693,"INCLINATION":99.0327,"RA_OF_ASC_NODE":144.3725,"ARG_OF_PERICENTER":51.5581,"MEAN_ANOMALY":339.4211,"EPHEMERIS_TYPE":0,"CLASSIFICATION_TYPE":"U","NORAD_CAT_ID":30300,"ELEMENT_SET_NO":999,"REV_AT_EPOCH":98203,"BSTAR":0.0028079346,"MEAN_MOTION_DOT":7.118e-5,"MEAN_MOTION_DDOT":0}]
